NORAD_CAT_ID,OBJECT_NAME,OBJECT_TYPE,EPOCH,MEAN_MOTION,ECCENTRICITY,INCLINATION,RA_OF_ASC_NODE,ARG_OF_PERICENTER,MEAN_ANOMALY,BSTAR,MEAN_MOTION_DOT,MEAN_MOTION_DDOT,TLE_LINE0,TLE_LINE1,TLE_LINE2,SEMIMAJOR_AXIS,PERIOD,APOGEE,PERIGEE,DECAYED
53826.0,STARLINK-4756,PAYLOAD,2022-10-14 16:00:00,15.73183268,0.0001341,53.217,131.9914,126.8407,315.7458,0.00025986,0.0003598,0.0,0 STARLINK-4756,1 53826U 22114J   22287.66667824  .00035980  00000-0  25986-3 0  9998,2 53826  53.2170 131.9914 0001341 126.8407 315.7458 15.73183268  4617,6727.943,91.534,350.71,348.906,0.0
53826.0,STARLINK-4756,PAYLOAD,2022-10-14 20:00:01,15.73203577,0.0001267,53.2173,131.1681,124.8268,182.2176,8.6858e-06,5.99e-06,0.0,0 STARLINK-4756,1 53826U 22114J   22287.83334491  .00000599  00000-0  86858-5 0  9993,2 53826  53.2173 131.1681 0001267 124.8268 182.2176 15.73203577  1306,6727.885,91.533,350.602,348.898,0.0
53826.0,STARLINK-4756,PAYLOAD,2022-10-15 06:00:00,15.73222498,0.0001662,53.2169,129.105,131.2289,16.975,-0.00021224,-0.00030329,0.0,0 STARLINK-4756,1 53826U 22114J   22288.25001157 -.00030329  00000-0 -21224-3 0  9990,2 53826  53.2169 129.1050 0001662 131.2289  16.9750 15.73222498  4703,6727.831,91.532,350.814,348.57800000000015,0.0
53826.0,STARLINK-4756,PAYLOAD,2022-10-15 14:00:01,15.73249611,0.0001498,53.2142,127.4528,125.73,111.5182,-0.00014633,-0.00021149,0.0,0 STARLINK-4756,1 53826U 22114J   22288.58334491 -.00021149  00000-0 -14633-3 0  9992,2 53826  53.2142 127.4528 0001498 125.7300 111.5182 15.73249611  1304,6727.754,91.53,350.62699999999984,348.611,0.0
53826.0,STARLINK-4756,PAYLOAD,2022-10-15 22:00:01,15.73215838,0.0001277,53.214,125.8052,117.7197,208.5905,-0.00073125,-0.00102079,0.0,0 STARLINK-4756,1 53826U 22114J   22288.91668981 -.00102079  00000-0 -73125-3 0  9996,2 53826  53.2140 125.8052 0001277 117.7197 208.5905 15.73215838  1300,6727.85,91.532,350.574,348.856,0.0
53826.0,STARLINK-4756,PAYLOAD,2022-10-16 06:00:00,15.73086818,0.0001303,53.216,124.1563,135.6046,279.5763,0.00011926,0.00016069,0.0,0 STARLINK-4756,1 53826U 22114J   22289.25001157  .00016069  00000-0  11926-3 0  9992,2 53826  53.2160 124.1563 0001303 135.6046 279.5763 15.73086818  4850,6728.218000000003,91.54,350.96,349.206,0.0
53826.0,STARLINK-4756,PAYLOAD,2022-10-16 14:00:01,15.73241593,0.0001429,53.2142,122.5042,123.9458,20.1312,-0.00027736,-0.00039433,0.0,0 STARLINK-4756,1 53826U 22114J   22289.58334491 -.00039433  00000-0 -27736-3 0  9996,2 53826  53.2142 122.5042 0001429 123.9458  20.1312 15.73241593  1300,6727.776999999999,91.531,350.603,348.68,0.0
53826.0,STARLINK-4756,PAYLOAD,2022-10-16 22:00:00,15.73195196,0.0001115999999999,53.2149,120.8574,111.149,121.892,0.00032728,0.00045551,0.0,0 STARLINK-4756,1 53826U 22114J   22289.91667824  .00045551  00000-0  32728-3 0  9995,2 53826  53.2149 120.8574 0001116 111.1490 121.8920 15.73195196  1307,6727.909000000002,91.533,350.525,349.023,0.0
53826.0,STARLINK-4756,PAYLOAD,2022-10-17 06:00:00,15.73183601,0.0001335,53.2151,119.2058,114.7236,207.2033,-0.00048001,-0.00067402,0.0,0 STARLINK-4756,1 53826U 22114J   22290.25001157 -.00067402  00000-0 -48001-3 0  9997,2 53826  53.2151 119.2058 0001335 114.7236 207.2033 15.73183601  5013,6727.941999999999,91.534,350.705,348.909,0.0
53826.0,STARLINK-4756,PAYLOAD,2022-10-17 14:00:01,15.73175622,0.0001494,53.2147,117.5559,116.3314,294.5096,0.00041523,0.00057997,0.0,0 STARLINK-4756,1 53826U 22114J   22290.58334491  .00057997  00000-0  41523-3 0  9991,2 53826  53.2147 117.5559 0001494 116.3314 294.5096 15.73175622  5063,6727.965,91.535,350.835,348.825,0.0
53826.0,STARLINK-4756,PAYLOAD,2022-10-17 22:00:00,15.73176942,0.0001155999999999,53.2139,115.9084,105.8463,33.926,0.00013373,0.0001817,0.0,0 STARLINK-4756,1 53826U 22114J   22290.91667824  .00018170  00000-0  13373-3 0  9999,2 53826  53.2139 115.9084 0001156 105.8463  33.9260 15.73176942  1309,6727.9609999999975,91.535,350.60400000000016,349.048,0.0
53826.0,STARLINK-4756,PAYLOAD,2022-10-18 14:00:01,15.73213073,0.0001171999999999,53.214,112.6076,117.5311,200.0482,-0.00035948,-0.00050794,0.0,0 STARLINK-4756,1 53826U 22114J   22291.58334491 -.00050794  00000-0 -35948-3 0  9996,2 53826  53.2140 112.6076 0001172 117.5311 200.0482 15.73213073  5221,6727.858,91.532,350.511,348.934,0.0
53826.0,STARLINK-4756,PAYLOAD,2022-10-18 22:00:00,15.73202638,0.000126,53.2176,110.9615,113.1604,293.329,2.1846e-05,2.447e-05,0.0,0 STARLINK-4756,1 53826U 22114J   22291.91667824  .00002447  00000-0  21846-4 0  9995,2 53826  53.2176 110.9615 0001260 113.1604 293.3290 15.73202638  1307,6727.888000000001,91.533,350.6,348.905,0.0
53826.0,STARLINK-4756,PAYLOAD,2022-10-19 08:00:01,15.7317933,9.91e-05,53.2139,108.8959,109.9887,137.6546,0.00011983,0.00016215,0.0,0 STARLINK-4756,1 53826U 22114J   22292.33334491  .00016215  00000-0  11983-3 0  9991,2 53826  53.2139 108.8959 0000991 109.9887 137.6546 15.73179330  5343,6727.954000000002,91.534,350.486,349.152,0.0
53826.0,STARLINK-4756,PAYLOAD,2022-10-19 14:00:01,15.73201841,0.0001137999999999,53.2138,107.6592,106.9179,117.4083,0.00022816,0.00031523,0.0,0 STARLINK-4756,1 53826U 22114J   22292.58334491  .00031523  00000-0  22816-3 0  9994,2 53826  53.2138 107.6592 0001138 106.9179 117.4083 15.73201841  1304,6727.89,91.533,350.521,348.98900000000015,0.0
53826.0,STARLINK-4756,PAYLOAD,2022-10-19 22:00:00,15.73193449,0.0001205999999999,53.2138,106.0114,91.5221,221.7566,0.00017814,0.00024446,0.0,0 STARLINK-4756,1 53826U 22114J   22292.91667824  .00024446  00000-0  17814-3 0  9998,2 53826  53.2138 106.0114 0001206  91.5221 221.7566 15.73193449  1309,6727.9140000000025,91.534,350.59,348.967,0.0
53826.0,STARLINK-4756,PAYLOAD,2022-10-20 06:00:00,15.73199548,0.0001247,53.2143,104.3598,101.9348,300.2823,0.0005502,0.00077309,0.0,0 STARLINK-4756,1 53826U 22114J   22293.25001157  .00077309  00000-0  55020-3 0  9994,2 53826  53.2143 104.3598 0001247 101.9348 300.2823 15.73199548  5481,6727.896,91.533,350.6,348.922,0.0
53826.0,STARLINK-4756,PAYLOAD,2022-10-20 14:00:01,15.73294179,0.0001330999999999,53.2155,102.7105,100.6946,30.4746,-0.00068057,-0.0009544,0.0,0 STARLINK-4756,1 53826U 22114J   22293.58334491 -.00095440  00000-0 -68057-3 0  9992,2 53826  53.2155 102.7105 0001331 100.6946  30.4746 15.73294179  1303,6727.627,91.528,350.38699999999994,348.596,0.0
53826.0,STARLINK-4756,PAYLOAD,2022-10-20 22:00:00,15.731330800000002,0.0001223,53.2156,101.0632,85.6578,134.4468,0.00048396,0.00067654,0.0,0 STARLINK-4756,1 53826U 22114J   22293.91667824  .00067654  00000-0  48396-3 0  9996,2 53826  53.2156 101.0632 0001223  85.6578 134.4468 15.73133080  5598,6728.0859999999975,91.537,350.774,349.12800000000016,0.0
53826.0,STARLINK-4756,PAYLOAD,2022-10-21 06:00:00,15.73216947,0.0001002999999999,53.216,99.4111,96.594,212.4472,-0.00023054,-0.0003286999999999,0.0,0 STARLINK-4756,1 53826U 22114J   22294.25001157 -.00032870  00000-0 -23054-3 0  9993,2 53826  53.2160  99.4111 0001003  96.5940 212.4472 15.73216947  5647,6727.847,91.532,350.38699999999994,349.037,0.0
53826.0,STARLINK-4756,PAYLOAD,2022-10-21 14:00:01,15.73234124,9.51e-05,53.2158,97.7617,93.4188,304.6337,0.00014428,0.00019706,0.0,0 STARLINK-4756,1 53826U 22114J   22294.58334491  .00019706  00000-0  14428-3 0  9995,2 53826  53.2158  97.7617 0000951  93.4188 304.6337 15.73234124  5693,6727.7980000000025,91.531,350.30300000000005,349.023,0.0
53826.0,STARLINK-4756,PAYLOAD,2022-10-21 22:00:00,15.73237247,0.000121,53.2144,96.1134,76.4577,50.5405,-0.00074623,-0.00104225,0.0,0 STARLINK-4756,1 53826U 22114J   22294.91667824 -.00104225  00000-0 -74623-3 0  9997,2 53826  53.2144  96.1134 0001210  76.4577  50.5405 15.73237247  5756,6727.7890000000025,91.531,350.468,348.84,0.0
53826.0,STARLINK-4756,PAYLOAD,2022-10-22 14:00:01,15.73184167,0.0001445,53.2146,92.8129,86.0122,218.7725,0.0002355,0.00032537,0.0,0 STARLINK-4756,1 53826U 22114J   22295.58334491  .00032537  00000-0  23550-3 0  9999,2 53826  53.2146  92.8129 0001445  86.0122 218.7725 15.73184167  1300,6727.94,91.534,350.778,348.833,0.0
53826.0,STARLINK-4756,PAYLOAD,2022-10-22 22:00:00,15.73235516,0.0001354,53.2146,91.1645,71.3894,322.3287,0.00039391,0.0005511,0.0,0 STARLINK-4756,1 53826U 22114J   22295.91667824  .00055110  00000-0  39391-3 0  9997,2 53826  53.2146  91.1645 0001354  71.3894 322.3287 15.73235516  1307,6727.794,91.531,350.57,348.74800000000016,0.0
53826.0,STARLINK-4756,PAYLOAD,2022-10-23 00:00:02,15.732818300000002,0.0001311,53.2146,90.7516,72.7837,73.2345,-0.00024352,-0.00034775,0.0,0 STARLINK-4756,1 53826U 22114J   22296.00002315 -.00034775  00000-0 -24352-3 0  9993,2 53826  53.2146  90.7516 0001311  72.7837  73.2345 15.73281830  5923,6727.6619999999975,91.528,350.409,348.645,0.0
53826.0,STARLINK-4756,PAYLOAD,2022-10-23 14:00:01,15.73283824,0.0001262,53.2148,87.8638,75.367,136.3437,-0.00045343,-0.00064001,0.0,0 STARLINK-4756,1 53826U 22114J   22296.58334491 -.00064001  00000-0 -45343-3 0  9997,2 53826  53.2148  87.8638 0001262  75.3670 136.3437 15.73283824  1302,6727.656,91.528,350.37,348.672,0.0
53826.0,STARLINK-4756,PAYLOAD,2022-10-23 22:00:00,15.73227679,0.0001161,53.2142,86.2152,61.7029,239.0072,-0.00040131,-0.00056629,0.0,0 STARLINK-4756,1 53826U 22114J   22296.91667824 -.00056629  00000-0 -40131-3 0  9990,2 53826  53.2142  86.2152 0001161  61.7029 239.0072 15.73227679  1307,6727.816,91.532,350.462,348.9,0.0
53826.0,STARLINK-4756,PAYLOAD,2022-10-24 06:00:00,15.73163274,9.940000000000004e-05,53.2143,84.5634,73.0087,316.6571,-0.00063709,-0.00088949,0.0,0 STARLINK-4756,1 53826U 22114J   22297.25001157 -.00088949  00000-0 -63709-3 0  9995,2 53826  53.2143  84.5634 0000994  73.0087 316.6571 15.73163274  6117,6728.0,91.535,350.534,349.196,0.0
53826.0,STARLINK-4756,PAYLOAD,2022-10-24 14:00:01,15.7307078,0.0001121,53.2147,82.9151,67.1193,51.3835,0.00025526,0.00035157,0.0,0 STARLINK-4756,1 53826U 22114J   22297.58334491  .00035157  00000-0  25526-3 0  9997,2 53826  53.2147  82.9151 0001121  67.1193  51.3835 15.73070780  1303,6728.264,91.541,350.8830000000001,349.374,0.0
